CHINASAT 9B             
1 49125U 21080A   26197.93155833 -.00000322  00000+0  00000+0 0  9990
2 49125   0.0544 247.0564 0002216 258.9866 225.4462  1.00267936 17949
SHIJIAN-21 (SJ-21)      
1 49330U 21094A   26198.25611429 -.00000359  00000+0  00000+0 0  9997
2 49330   5.1825  60.9962 0051581 168.9621 285.2578  1.00277084  5660
SES-17                  
1 49332U 21095A   26197.75566520 -.00000283  00000+0  00000+0 0  9991
2 49332   0.0243  50.5252 0000833  64.0939  24.8920  1.00269281 18155
SYRACUSE 4A             
1 49333U 21095B   26198.27692822  .00000000  00000+0  00000+0 0  9991
2 49333   0.0230  68.2529 0001641  40.2638 331.7893  1.00270128 18246
QZS-1R (MICHIBIKI-1R)   
1 49336U 21096A   26195.57629205 -.00000304  00000+0  00000+0 0  9998
2 49336  37.5157  79.1769 0754906 272.2285 280.2291  1.00245239 17281
ZHONGXING-1D            
1 49505U 21114A   26198.29365495 -.00000347  00000+0  00000+0 0  9994
2 49505   0.0281 227.0469 0000669  25.5484 278.3733  1.00267447 17120
STPSAT-6                
1 49817U 21118A   26197.96059179 -.00000055  00000+0  00000+0 0  9992
2 49817   0.3958  85.0877 0000928 244.0511 199.6623  1.00270380 16876
EXPRESS AMU-7           
1 50001U 21123A   26198.15407660 -.00000253  00000+0  00000+0 0  9999
2 50001   0.0304 276.9807 0000397  23.9521 194.5046  1.00272238 16848
EXPRESS AMU-3           
1 50002U 21123B   26197.89551023  .00000000  00000+0  00000+0 0  9992
2 50002   0.0145 344.9181 0000346 324.0235  51.0553  1.00271212  7339
TIANLIAN 2-02           
1 50005U 21124A   26198.23048036 -.00000025  00000+0  00000+0 0  9998
2 50005   0.8774  85.6286 0001656 161.3851 301.9620  1.00271006 16922
TURKSAT 5B              
1 50212U 21126A   26198.06241519  .00000136  00000+0  00000+0 0  9994
2 50212   0.0698 341.4108 0002301  12.6933   5.2373  1.00270971 16594
INMARSAT 6-F1           
1 50319U 21128A   26198.19697726  .00000000  00000+0  00000+0 0  9993
2 50319   0.0160  49.7284 0000101  49.0611 350.9018  1.00269491 16560
SHIYAN-12 01 (SY-12 01) 
1 50321U 21129A   26197.75469796  .00000137  00000+0  00000+0 0  9993
2 50321   3.7490  79.5113 0002606 287.1397 235.6582  1.00052041 16790
SHIYAN-12 02 (SY-12 02) 
1 50322U 21129B   26197.75777715 -.00000374  00000+0  00000+0 0  9991
2 50322   3.7480  79.5110 0003112  69.2267 170.1657  1.00476521 16794
TJS-9                   
1 50574U 21135A   26198.29512829 -.00000309  00000+0  00000+0 0  9998
2 50574   0.0516 100.3774 0002119 330.8402 107.3901  1.00271598 16731
GOES 18                 
1 51850U 22021A   26198.23378149  .00000087  00000+0  00000+0 0  9992
2 51850   0.0129 125.1811 0000434  48.5879  68.4375  1.00271760  6894
ZHONGXING-6D            
1 52255U 22038A   26196.83674034 -.00000364  00000+0  00000+0 0  9995
2 52255   0.0285 209.4487 0000695 329.0620 181.4693  1.00271676 15718
NILESAT 301             
1 52817U 22061A   26198.26652816 -.00000068  00000+0  00000+0 0  9999
2 52817   0.0459   5.2543 0003553  76.1761 302.6089  1.00269845 15038
CMS-02 (GSAT-24)        
1 52903U 22067A   26198.07047523 -.00000174  00000+0  00000+0 0  9991
2 52903   0.0615 252.5731 0001030 106.2037  44.4622  1.00270649 14906
MEASAT 3D               
1 52904U 22067B   26198.28594159 -.00000251  00000+0  00000+0 0  9993
2 52904   0.0401 318.7736 0000553  65.3640 105.4096  1.00270868 14955
SES-22                  
1 52933U 22071A   26198.23378149  .00000094  00000+0  00000+0 0  9998
2 52933   0.0194  39.7801 0000899  67.9272 132.4844  1.00272576  7828
WFOV (USA 332)          
1 52940U 22073A   26198.22025366 -.00000374  00000+0  00000+0 0  9999
2 52940   3.7860  78.1472 0001418 216.5890 198.8237  1.00266281 14672
TIANLIAN 2-03           
1 53100U 22078A   26198.26999485  .00000062  00000+0  00000+0 0  9992
2 53100   0.7450  77.5276 0000839  14.5008 310.8966  1.00271333 14849
SBIRS GEO-6 (USA 336)   
1 53355U 22092A   26198.29547497 -.00000300  00000+0  00000+0 0  9991
2 53355   3.2077 317.9921 0001746 153.0633  69.4268  1.00270992 14531
EUTELSAT KONNECT VHTS   
1 53765U 22110A   26198.26843484  .00000007  00000+0  00000+0 0  9992
2 53765   0.0584  98.5051 0002775 348.0713 307.8320  1.00269812  7133
ZHONGXING-1E            
1 53813U 22112A   26198.15878043  .00000000  00000+0  00000+0 0  9998
2 53813   0.0184 233.3630 0000743  40.2827 159.9156  1.00270484 14144
SES-20                  
1 53960U 22123A   26197.96232514 -.00000111  00000+0  00000+0 0  9992
2 53960   0.0176  69.2410 0001822  25.1117  83.7583  1.00269088 13834
SES-21                  
1 53961U 22123B   26198.24194977  .00000000  00000+0  00000+0 0  9991
2 53961   0.0381  38.6743 0000990  76.4588 136.1182  1.00267935  7513
GALAXY 33 (G-33)        
1 54026U 22128A   26198.24160310  .00000069  00000+0  00000+0 0  9998
2 54026   0.0147  60.3719 0001822  53.0105 135.6434  1.00269560 14048
GALAXY 34 (G-34)        
1 54027U 22128B   26198.24238310  .00000049  00000+0  00000+0 0  9993
2 54027   0.0100  60.2589 0001571  62.7326 130.3159  1.00267690 14212
ANGOSAT 2               
1 54033U 22131A   26197.86086317  .00000125  00000+0  00000+0 0  9994
2 54033   0.0202 116.8851 0000179 236.2611 274.4367  1.00271065 13772
